[{"OBJECT_NAME":"STARLINK-37146","OBJECT_ID":"2026-070P","EPOCH":"2026-04-20T14:00:03.000384","MEAN_MOTION":15.80864315,"ECCENTRICITY":0.0001306,"INCLINATION":53.1578,"RA_OF_ASC_NODE":174.3364,"ARG_OF_PERICENTER":67.6462,"MEAN_ANOMALY":188.358,"EPHEMERIS_TYPE":0,"CLASSIFICATION_TYPE":"U","NORAD_CAT_ID":68555,"ELEMENT_SET_NO":999,"REV_AT_EPOCH":411,"BSTAR":0.00033800107,"MEAN_MOTION_DOT":0.000665,"MEAN_MOTION_DDOT":0},{"OBJECT_NAME":"STARLINK-37144","OBJECT_ID":"2026-070Q","EPOCH":"2026-04-20T14:00:03.000384","MEAN_MOTION":15.80868182,"ECCENTRICITY":0.00011103,"INCLINATION":53.1579,"RA_OF_ASC_NODE":174.3013,"ARG_OF_PERICENTER":93.6676,"MEAN_ANOMALY":179.4278,"EPHEMERIS_TYPE":0,"CLASSIFICATION_TYPE":"U","NORAD_CAT_ID":68556,"ELEMENT_SET_NO":999,"REV_AT_EPOCH":411,"BSTAR":0.00023669338,"MEAN_MOTION_DOT":0.00046257,"MEAN_MOTION_DDOT":0},{"OBJECT_NAME":"STARLINK-37210","OBJECT_ID":"2026-070R","EPOCH":"2026-04-20T14:00:03.000384","MEAN_MOTION":15.80891813,"ECCENTRICITY":0.00010738,"INCLINATION":53.1578,"RA_OF_ASC_NODE":174.3104,"ARG_OF_PERICENTER":71.7415,"MEAN_ANOMALY":197.069,"EPHEMERIS_TYPE":0,"CLASSIFICATION_TYPE":"U","NORAD_CAT_ID":68557,"ELEMENT_SET_NO":999,"REV_AT_EPOCH":411,"BSTAR":5.303326e-5,"MEAN_MOTION_DOT":9.789e-5,"MEAN_MOTION_DDOT":0},{"OBJECT_NAME":"STARLINK-37227","OBJECT_ID":"2026-070S","EPOCH":"2026-04-20T14:00:03.000384","MEAN_MOTION":15.80879303,"ECCENTRICITY":0.00013636,"INCLINATION":53.1581,"RA_OF_ASC_NODE":174.2922,"ARG_OF_PERICENTER":59.508,"MEAN_ANOMALY":217.85,"EPHEMERIS_TYPE":0,"CLASSIFICATION_TYPE":"U","NORAD_CAT_ID":68558,"ELEMENT_SET_NO":999,"REV_AT_EPOCH":411,"BSTAR":0.0002147441,"MEAN_MOTION_DOT":0.00041903,"MEAN_MOTION_DDOT":0},{"OBJECT_NAME":"STARLINK-37294","OBJECT_ID":"2026-070T","EPOCH":"2026-04-20T14:00:03.000384","MEAN_MOTION":15.80880427,"ECCENTRICITY":0.00017075,"INCLINATION":53.158,"RA_OF_ASC_NODE":174.2836,"ARG_OF_PERICENTER":82.6182,"MEAN_ANOMALY":199.0131,"EPHEMERIS_TYPE":0,"CLASSIFICATION_TYPE":"U","NORAD_CAT_ID":68559,"ELEMENT_SET_NO":999,"REV_AT_EPOCH":411,"BSTAR":0.00017817492,"MEAN_MOTION_DOT":0.0003462,"MEAN_MOTION_DDOT":0},{"OBJECT_NAME":"STARLINK-37291","OBJECT_ID":"2026-070U","EPOCH":"2026-04-20T14:00:03.000384","MEAN_MOTION":15.80880813,"ECCENTRICITY":0.00012688,"INCLINATION":53.158,"RA_OF_ASC_NODE":174.2746,"ARG_OF_PERICENTER":76.1194,"MEAN_ANOMALY":209.7792,"EPHEMERIS_TYPE":0,"CLASSIFICATION_TYPE":"U","NORAD_CAT_ID":68560,"ELEMENT_SET_NO":999,"REV_AT_EPOCH":411,"BSTAR":0.00022138293,"MEAN_MOTION_DOT":0.00043229,"MEAN_MOTION_DDOT":0},{"OBJECT_NAME":"STARLINK-37114","OBJECT_ID":"2026-070V","EPOCH":"2026-04-20T14:00:03.000384","MEAN_MOTION":15.80881926,"ECCENTRICITY":0.00012456,"INCLINATION":53.158,"RA_OF_ASC_NODE":174.2661,"ARG_OF_PERICENTER":97.7959,"MEAN_ANOMALY":192.3759,"EPHEMERIS_TYPE":0,"CLASSIFICATION_TYPE":"U","NORAD_CAT_ID":68561,"ELEMENT_SET_NO":999,"REV_AT_EPOCH":411,"BSTAR":0.00016436467,"MEAN_MOTION_DOT":0.00031874,"MEAN_MOTION_DDOT":0},{"OBJECT_NAME":"STARLINK-37233","OBJECT_ID":"2026-070W","EPOCH":"2026-04-20T14:00:03.000384","MEAN_MOTION":15.80866559,"ECCENTRICITY":0.00012205,"INCLINATION":53.1581,"RA_OF_ASC_NODE":174.2484,"ARG_OF_PERICENTER":129.6168,"MEAN_ANOMALY":169.1031,"EPHEMERIS_TYPE":0,"CLASSIFICATION_TYPE":"U","NORAD_CAT_ID":68562,"ELEMENT_SET_NO":999,"REV_AT_EPOCH":411,"BSTAR":0.00027110286,"MEAN_MOTION_DOT":0.00053122,"MEAN_MOTION_DDOT":0},{"OBJECT_NAME":"STARLINK-36238","OBJECT_ID":"2026-070X","EPOCH":"2026-04-20T14:00:03.000384","MEAN_MOTION":15.80874773,"ECCENTRICITY":0.00014897,"INCLINATION":53.1581,"RA_OF_ASC_NODE":174.2571,"ARG_OF_PERICENTER":84.5884,"MEAN_ANOMALY":209.8584,"EPHEMERIS_TYPE":0,"CLASSIFICATION_TYPE":"U","NORAD_CAT_ID":68563,"ELEMENT_SET_NO":999,"REV_AT_EPOCH":406,"BSTAR":0.00022119627,"MEAN_MOTION_DOT":0.0004318,"MEAN_MOTION_DDOT":0},{"OBJECT_NAME":"STARLINK-37008","OBJECT_ID":"2026-070Y","EPOCH":"2026-04-20T14:00:03.000384","MEAN_MOTION":15.80868291,"ECCENTRICITY":0.00011302,"INCLINATION":53.1581,"RA_OF_ASC_NODE":174.2393,"ARG_OF_PERICENTER":130.9386,"MEAN_ANOMALY":172.0541,"EPHEMERIS_TYPE":0,"CLASSIFICATION_TYPE":"U","NORAD_CAT_ID":68564,"ELEMENT_SET_NO":999,"REV_AT_EPOCH":411,"BSTAR":0.00027936769,"MEAN_MOTION_DOT":0.00054777,"MEAN_MOTION_DDOT":0},{"OBJECT_NAME":"STARLINK-37161","OBJECT_ID":"2026-070Z","EPOCH":"2026-04-20T14:00:03.000384","MEAN_MOTION":15.80940933,"ECCENTRICITY":0.00010327,"INCLINATION":53.158,"RA_OF_ASC_NODE":174.2305,"ARG_OF_PERICENTER":101.2754,"MEAN_ANOMALY":205.9491,"EPHEMERIS_TYPE":0,"CLASSIFICATION_TYPE":"U","NORAD_CAT_ID":68565,"ELEMENT_SET_NO":999,"REV_AT_EPOCH":411,"BSTAR":-0.00034357853,"MEAN_MOTION_DOT":-0.00068189,"MEAN_MOTION_DDOT":0},{"OBJECT_NAME":"STARLINK-37212","OBJECT_ID":"2026-070AA","EPOCH":"2026-04-20T14:00:03.000384","MEAN_MOTION":15.80873802,"ECCENTRICITY":0.0001209,"INCLINATION":53.1581,"RA_OF_ASC_NODE":174.2212,"ARG_OF_PERICENTER":103.3569,"MEAN_ANOMALY":208.1719,"EPHEMERIS_TYPE":0,"CLASSIFICATION_TYPE":"U","NORAD_CAT_ID":68566,"ELEMENT_SET_NO":999,"REV_AT_EPOCH":411,"BSTAR":0.00028189029,"MEAN_MOTION_DOT":0.00055296,"MEAN_MOTION_DDOT":0},{"OBJECT_NAME":"STARLINK-37261","OBJECT_ID":"2026-070AB","EPOCH":"2026-04-20T14:00:03.000384","MEAN_MOTION":15.80878922,"ECCENTRICITY":0.00014393,"INCLINATION":53.1579,"RA_OF_ASC_NODE":174.2123,"ARG_OF_PERICENTER":58.5242,"MEAN_ANOMALY":257.2806,"EPHEMERIS_TYPE":0,"CLASSIFICATION_TYPE":"U","NORAD_CAT_ID":68567,"ELEMENT_SET_NO":999,"REV_AT_EPOCH":411,"BSTAR":0.00018460885,"MEAN_MOTION_DOT":0.00035898,"MEAN_MOTION_DDOT":0},{"OBJECT_NAME":"STARLINK-37283","OBJECT_ID":"2026-070AC","EPOCH":"2026-04-18T00:00:04.000320","MEAN_MOTION":15.80838078,"ECCENTRICITY":0.00010468,"INCLINATION":53.1591,"RA_OF_ASC_NODE":187.5762,"ARG_OF_PERICENTER":78.4908,"MEAN_ANOMALY":84.1358,"EPHEMERIS_TYPE":0,"CLASSIFICATION_TYPE":"U","NORAD_CAT_ID":68568,"ELEMENT_SET_NO":999,"REV_AT_EPOCH":370,"BSTAR":0.00034048775,"MEAN_MOTION_DOT":0.00066916,"MEAN_MOTION_DDOT":0},{"OBJECT_NAME":"STARLINK-37256","OBJECT_ID":"2026-070AD","EPOCH":"2026-04-18T00:00:04.000320","MEAN_MOTION":15.80856338,"ECCENTRICITY":0.00010356,"INCLINATION":53.1589,"RA_OF_ASC_NODE":187.5848,"ARG_OF_PERICENTER":93.219,"MEAN_ANOMALY":65.1294,"EPHEMERIS_TYPE":0,"CLASSIFICATION_TYPE":"U","NORAD_CAT_ID":68569,"ELEMENT_SET_NO":999,"REV_AT_EPOCH":370,"BSTAR":0.00015134513,"MEAN_MOTION_DOT":0.0002925,"MEAN_MOTION_DDOT":0},{"OBJECT_NAME":"STARLINK-37228","OBJECT_ID":"2026-070AE","EPOCH":"2026-04-18T00:00:04.000320","MEAN_MOTION":15.80833478,"ECCENTRICITY":0.00011042,"INCLINATION":53.1589,"RA_OF_ASC_NODE":187.5675,"ARG_OF_PERICENTER":76.1108,"MEAN_ANOMALY":90.7864,"EPHEMERIS_TYPE":0,"CLASSIFICATION_TYPE":"U","NORAD_CAT_ID":68570,"ELEMENT_SET_NO":999,"REV_AT_EPOCH":370,"BSTAR":0.00040917115,"MEAN_MOTION_DOT":0.00080668,"MEAN_MOTION_DDOT":0}]
