STARLINK-37146
1 68555U 26070P   26110.58336806  .00066500  00000+0  33800-3 0  9996
2 68555  53.1578 174.3364 0001306  67.6462 188.3580 15.80864315  4119
STARLINK-37144
1 68556U 26070Q   26110.58336806  .00046257  00000+0  23669-3 0  9996
2 68556  53.1579 174.3013 0001110  93.6676 179.4278 15.80868182  4112
STARLINK-37210
1 68557U 26070R   26110.58336806  .00009789  00000+0  53033-4 0  9995
2 68557  53.1578 174.3104 0001073  71.7415 197.0690 15.80891813  4110
STARLINK-37227
1 68558U 26070S   26110.58336806  .00041903  00000+0  21474-3 0  9993
2 68558  53.1581 174.2922 0001363  59.5080 217.8500 15.80879303  4117
STARLINK-37294
1 68559U 26070T   26110.58336806  .00034620  00000+0  17817-3 0  9998
2 68559  53.1580 174.2836 0001707  82.6182 199.0131 15.80880427  4113
STARLINK-37291
1 68560U 26070U   26110.58336806  .00043229  00000+0  22138-3 0  9997
2 68560  53.1580 174.2746 0001268  76.1194 209.7792 15.80880813  4119
STARLINK-37114
1 68561U 26070V   26110.58336806  .00031874  00000+0  16436-3 0  9995
2 68561  53.1580 174.2661 0001245  97.7959 192.3759 15.80881926  4115
STARLINK-37233
1 68562U 26070W   26110.58336806  .00053122  00000+0  27110-3 0  9997
2 68562  53.1581 174.2484 0001220 129.6168 169.1031 15.80866559  4110
STARLINK-36238
1 68563U 26070X   26110.58336806  .00043180  00000+0  22120-3 0  9997
2 68563  53.1581 174.2571 0001489  84.5884 209.8584 15.80874773  4065
STARLINK-37008
1 68564U 26070Y   26110.58336806  .00054777  00000+0  27937-3 0  9993
2 68564  53.1581 174.2393 0001130 130.9386 172.0541 15.80868291  4112
STARLINK-37161
1 68565U 26070Z   26110.58336806 -.00068189  00000+0 -34358-3 0  9993
2 68565  53.1580 174.2305 0001032 101.2754 205.9491 15.80940933  4110
STARLINK-37212
1 68566U 26070AA  26110.58336806  .00055296  00000+0  28189-3 0  9992
2 68566  53.1581 174.2212 0001209 103.3569 208.1719 15.80873802  4110
STARLINK-37261
1 68567U 26070AB  26110.58336806  .00035898  00000+0  18461-3 0  9991
2 68567  53.1579 174.2123 0001439  58.5242 257.2806 15.80878922  4113
STARLINK-37283
1 68568U 26070AC  26108.00004630  .00066916  00000+0  34049-3 0  9998
2 68568  53.1591 187.5762 0001046  78.4908  84.1358 15.80838078  3709
STARLINK-37256
1 68569U 26070AD  26108.00004630  .00029250  00000+0  15135-3 0  9994
2 68569  53.1589 187.5848 0001035  93.2190  65.1294 15.80856338  3705
STARLINK-37228
1 68570U 26070AE  26108.00004630  .00080668  00000+0  40917-3 0  9992
2 68570  53.1589 187.5675 0001104  76.1108  90.7864 15.80833478  3708
